[{"OBJECT_NAME":"OBJECT AC","OBJECT_ID":"2024-199AC","EPOCH":"2026-03-09T22:27:25.552224","MEAN_MOTION":15.49748624,"ECCENTRICITY":0.00048973,"INCLINATION":97.3101,"RA_OF_ASC_NODE":303.6895,"ARG_OF_PERICENTER":286.8093,"MEAN_ANOMALY":73.2621,"EPHEMERIS_TYPE":0,"CLASSIFICATION_TYPE":"U","NORAD_CAT_ID":61761,"ELEMENT_SET_NO":999,"REV_AT_EPOCH":12220,"BSTAR":0.00074432819,"MEAN_MOTION_DOT":0.00041426,"MEAN_MOTION_DDOT":0},{"OBJECT_NAME":"STARLINK-36633","OBJECT_ID":"2026-020R","EPOCH":"2026-03-09T22:00:01.999584","MEAN_MOTION":15.61213254,"ECCENTRICITY":0.00016655,"INCLINATION":42.9998,"RA_OF_ASC_NODE":140.5602,"ARG_OF_PERICENTER":275.5888,"MEAN_ANOMALY":117.4481,"EPHEMERIS_TYPE":0,"CLASSIFICATION_TYPE":"U","NORAD_CAT_ID":67632,"ELEMENT_SET_NO":999,"REV_AT_EPOCH":604,"BSTAR":-0.024816253,"MEAN_MOTION_DOT":-0.01909331,"MEAN_MOTION_DDOT":0}]
